[{"OBJECT_NAME":"SCS-01 K","OBJECT_ID":"2025-100K","EPOCH":"2026-03-09T23:34:24.068928","MEAN_MOTION":15.20905927,"ECCENTRICITY":0.0009688,"INCLINATION":97.3704,"RA_OF_ASC_NODE":143.9421,"ARG_OF_PERICENTER":311.1464,"MEAN_ANOMALY":48.8935,"EPHEMERIS_TYPE":0,"CLASSIFICATION_TYPE":"U","NORAD_CAT_ID":63991,"ELEMENT_SET_NO":999,"REV_AT_EPOCH":4554,"BSTAR":0.00099261902,"MEAN_MOTION_DOT":0.00021955,"MEAN_MOTION_DDOT":0},{"OBJECT_NAME":"COSMOS 2251 DEB","OBJECT_ID":"1993-036AUU","EPOCH":"2026-03-05T06:52:33.034944","MEAN_MOTION":15.00530799,"ECCENTRICITY":0.0084949,"INCLINATION":74.0317,"RA_OF_ASC_NODE":43.0245,"ARG_OF_PERICENTER":102.0037,"MEAN_ANOMALY":259.0688,"EPHEMERIS_TYPE":0,"CLASSIFICATION_TYPE":"U","NORAD_CAT_ID":35905,"ELEMENT_SET_NO":999,"REV_AT_EPOCH":89820,"BSTAR":0.00077707,"MEAN_MOTION_DOT":0.00010555,"MEAN_MOTION_DDOT":0}]
